[{"OBJECT_NAME":"ONEWEB-0262","OBJECT_ID":"2021-060P","EPOCH":"2026-03-09T22:32:44.469312","MEAN_MOTION":13.16593742,"ECCENTRICITY":0.00019142,"INCLINATION":87.9003,"RA_OF_ASC_NODE":248.5097,"ARG_OF_PERICENTER":94.8576,"MEAN_ANOMALY":265.2774,"EPHEMERIS_TYPE":0,"CLASSIFICATION_TYPE":"U","NORAD_CAT_ID":48980,"ELEMENT_SET_NO":999,"REV_AT_EPOCH":22656,"BSTAR":0.00018040943,"MEAN_MOTION_DOT":8.2e-7,"MEAN_MOTION_DDOT":0},{"OBJECT_NAME":"FENGYUN 1C DEB","OBJECT_ID":"1999-025DRA","EPOCH":"2026-03-08T02:19:35.330016","MEAN_MOTION":13.52479276,"ECCENTRICITY":0.02957908,"INCLINATION":99.9646,"RA_OF_ASC_NODE":125.1472,"ARG_OF_PERICENTER":336.8902,"MEAN_ANOMALY":50.9056,"EPHEMERIS_TYPE":0,"CLASSIFICATION_TYPE":"U","NORAD_CAT_ID":35242,"ELEMENT_SET_NO":999,"REV_AT_EPOCH":59281,"BSTAR":0.0012983114,"MEAN_MOTION_DOT":1.084e-5,"MEAN_MOTION_DDOT":0}]
